[{"OBJECT_NAME":"METOP-B","OBJECT_ID":"2012-049A","EPOCH":"2026-04-25T21:19:44.224320","MEAN_MOTION":14.21432962,"ECCENTRICITY":0.00033831,"INCLINATION":98.655,"RA_OF_ASC_NODE":168.42,"ARG_OF_PERICENTER":125.1604,"MEAN_ANOMALY":234.9891,"EPHEMERIS_TYPE":0,"CLASSIFICATION_TYPE":"U","NORAD_CAT_ID":38771,"ELEMENT_SET_NO":999,"REV_AT_EPOCH":70583,"BSTAR":6.277316e-5,"MEAN_MOTION_DOT":9.4e-7,"MEAN_MOTION_DDOT":0},{"OBJECT_NAME":"SARAL","OBJECT_ID":"2013-009A","EPOCH":"2026-04-25T22:43:39.589536","MEAN_MOTION":14.32842751,"ECCENTRICITY":0.00029918,"INCLINATION":98.5566,"RA_OF_ASC_NODE":303.1739,"ARG_OF_PERICENTER":84.0878,"MEAN_ANOMALY":276.0647,"EPHEMERIS_TYPE":0,"CLASSIFICATION_TYPE":"U","NORAD_CAT_ID":39086,"ELEMENT_SET_NO":999,"REV_AT_EPOCH":68812,"BSTAR":5.6627749e-5,"MEAN_MOTION_DOT":1.11e-6,"MEAN_MOTION_DDOT":0},{"OBJECT_NAME":"METOP-C","OBJECT_ID":"2018-087A","EPOCH":"2026-04-25T21:51:28.740384","MEAN_MOTION":14.2151158,"ECCENTRICITY":8.612e-5,"INCLINATION":98.668,"RA_OF_ASC_NODE":176.4605,"ARG_OF_PERICENTER":40.6957,"MEAN_ANOMALY":319.4284,"EPHEMERIS_TYPE":0,"CLASSIFICATION_TYPE":"U","NORAD_CAT_ID":43689,"ELEMENT_SET_NO":999,"REV_AT_EPOCH":38740,"BSTAR":6.233682e-5,"MEAN_MOTION_DOT":9.3e-7,"MEAN_MOTION_DDOT":0},{"OBJECT_NAME":"OTB-3-GAZELLE","OBJECT_ID":"2022-127A","EPOCH":"2026-04-25T21:41:22.291872","MEAN_MOTION":14.4265492,"ECCENTRICITY":0.00129398,"INCLINATION":98.3936,"RA_OF_ASC_NODE":108.4088,"ARG_OF_PERICENTER":352.1705,"MEAN_ANOMALY":7.9281,"EPHEMERIS_TYPE":0,"CLASSIFICATION_TYPE":"U","NORAD_CAT_ID":54023,"ELEMENT_SET_NO":999,"REV_AT_EPOCH":18682,"BSTAR":6.1698263e-5,"MEAN_MOTION_DOT":1.62e-6,"MEAN_MOTION_DDOT":0},{"OBJECT_NAME":"EOS-6 (OCEANSAT-3)","OBJECT_ID":"2022-158A","EPOCH":"2026-04-25T22:55:47.742816","MEAN_MOTION":14.46979063,"ECCENTRICITY":0.00022986,"INCLINATION":98.3503,"RA_OF_ASC_NODE":214.8517,"ARG_OF_PERICENTER":107.7243,"MEAN_ANOMALY":252.4201,"EPHEMERIS_TYPE":0,"CLASSIFICATION_TYPE":"U","NORAD_CAT_ID":54361,"ELEMENT_SET_NO":999,"REV_AT_EPOCH":18028,"BSTAR":8.4191037e-5,"MEAN_MOTION_DOT":2.63e-6,"MEAN_MOTION_DDOT":0},{"OBJECT_NAME":"KINEIS-1B","OBJECT_ID":"2024-114A","EPOCH":"2026-04-25T22:42:21.504672","MEAN_MOTION":14.80530504,"ECCENTRICITY":8.998e-5,"INCLINATION":97.9862,"RA_OF_ASC_NODE":140.3778,"ARG_OF_PERICENTER":251.9332,"MEAN_ANOMALY":108.1782,"EPHEMERIS_TYPE":0,"CLASSIFICATION_TYPE":"U","NORAD_CAT_ID":60079,"ELEMENT_SET_NO":999,"REV_AT_EPOCH":9967,"BSTAR":0.00012653983,"MEAN_MOTION_DOT":9.17e-6,"MEAN_MOTION_DDOT":0},{"OBJECT_NAME":"KINEIS-1C","OBJECT_ID":"2024-114C","EPOCH":"2026-04-25T23:31:00.716160","MEAN_MOTION":14.80533211,"ECCENTRICITY":0.00017478,"INCLINATION":97.9881,"RA_OF_ASC_NODE":140.2477,"ARG_OF_PERICENTER":60.044,"MEAN_ANOMALY":300.0946,"EPHEMERIS_TYPE":0,"CLASSIFICATION_TYPE":"U","NORAD_CAT_ID":60081,"ELEMENT_SET_NO":999,"REV_AT_EPOCH":9965,"BSTAR":0.00012432955,"MEAN_MOTION_DOT":9.0e-6,"MEAN_MOTION_DDOT":0},{"OBJECT_NAME":"KINEIS-1D","OBJECT_ID":"2024-114D","EPOCH":"2026-04-25T23:41:57.319008","MEAN_MOTION":14.76187812,"ECCENTRICITY":0.00020748,"INCLINATION":97.9921,"RA_OF_ASC_NODE":136.6888,"ARG_OF_PERICENTER":51.2712,"MEAN_ANOMALY":308.8683,"EPHEMERIS_TYPE":0,"CLASSIFICATION_TYPE":"U","NORAD_CAT_ID":60082,"ELEMENT_SET_NO":999,"REV_AT_EPOCH":9942,"BSTAR":9.5429796e-5,"MEAN_MOTION_DOT":6.09e-6,"MEAN_MOTION_DDOT":0},{"OBJECT_NAME":"KINEIS-1E","OBJECT_ID":"2024-114E","EPOCH":"2026-04-25T06:03:22.394592","MEAN_MOTION":14.80446587,"ECCENTRICITY":0.000233,"INCLINATION":97.931,"RA_OF_ASC_NODE":139.4409,"ARG_OF_PERICENTER":62.2351,"MEAN_ANOMALY":297.9097,"EPHEMERIS_TYPE":0,"CLASSIFICATION_TYPE":"U","NORAD_CAT_ID":60083,"ELEMENT_SET_NO":999,"REV_AT_EPOCH":9955,"BSTAR":-0.00023275,"MEAN_MOTION_DOT":-1.83e-5,"MEAN_MOTION_DDOT":0},{"OBJECT_NAME":"KINEIS-1A","OBJECT_ID":"2024-114F","EPOCH":"2026-04-25T23:06:40.872384","MEAN_MOTION":14.80480723,"ECCENTRICITY":0.00027654,"INCLINATION":97.9274,"RA_OF_ASC_NODE":140.2604,"ARG_OF_PERICENTER":316.0186,"MEAN_ANOMALY":44.0806,"EPHEMERIS_TYPE":0,"CLASSIFICATION_TYPE":"U","NORAD_CAT_ID":60084,"ELEMENT_SET_NO":999,"REV_AT_EPOCH":9966,"BSTAR":6.9309183e-5,"MEAN_MOTION_DOT":4.78e-6,"MEAN_MOTION_DDOT":0},{"OBJECT_NAME":"KINEIS-3C","OBJECT_ID":"2024-172A","EPOCH":"2026-04-25T19:26:57.534432","MEAN_MOTION":14.72281126,"ECCENTRICITY":8.247e-5,"INCLINATION":98.041,"RA_OF_ASC_NODE":206.267,"ARG_OF_PERICENTER":29.9486,"MEAN_ANOMALY":330.1768,"EPHEMERIS_TYPE":0,"CLASSIFICATION_TYPE":"U","NORAD_CAT_ID":61220,"ELEMENT_SET_NO":999,"REV_AT_EPOCH":8536,"BSTAR":0.00032101618,"MEAN_MOTION_DOT":1.978e-5,"MEAN_MOTION_DDOT":0},{"OBJECT_NAME":"KINEIS-3D","OBJECT_ID":"2024-172B","EPOCH":"2026-04-25T19:17:10.468896","MEAN_MOTION":14.72283242,"ECCENTRICITY":7.421e-5,"INCLINATION":98.0408,"RA_OF_ASC_NODE":206.2715,"ARG_OF_PERICENTER":41.0536,"MEAN_ANOMALY":319.0727,"EPHEMERIS_TYPE":0,"CLASSIFICATION_TYPE":"U","NORAD_CAT_ID":61221,"ELEMENT_SET_NO":999,"REV_AT_EPOCH":8564,"BSTAR":0.00032381649,"MEAN_MOTION_DOT":1.996e-5,"MEAN_MOTION_DDOT":0},{"OBJECT_NAME":"KINEIS-3E","OBJECT_ID":"2024-172C","EPOCH":"2026-04-25T20:29:59.447328","MEAN_MOTION":14.72270742,"ECCENTRICITY":9.238e-5,"INCLINATION":98.0402,"RA_OF_ASC_NODE":206.3092,"ARG_OF_PERICENTER":90.5008,"MEAN_ANOMALY":269.6305,"EPHEMERIS_TYPE":0,"CLASSIFICATION_TYPE":"U","NORAD_CAT_ID":61222,"ELEMENT_SET_NO":999,"REV_AT_EPOCH":8565,"BSTAR":0.00031667805,"MEAN_MOTION_DOT":1.951e-5,"MEAN_MOTION_DDOT":0},{"OBJECT_NAME":"KINEIS-3A","OBJECT_ID":"2024-172D","EPOCH":"2026-04-25T18:28:40.570464","MEAN_MOTION":14.72296619,"ECCENTRICITY":8.705e-5,"INCLINATION":98.0402,"RA_OF_ASC_NODE":206.3266,"ARG_OF_PERICENTER":220.0205,"MEAN_ANOMALY":140.0938,"EPHEMERIS_TYPE":0,"CLASSIFICATION_TYPE":"U","NORAD_CAT_ID":61223,"ELEMENT_SET_NO":999,"REV_AT_EPOCH":8506,"BSTAR":0.00027211115,"MEAN_MOTION_DOT":1.67e-5,"MEAN_MOTION_DDOT":0},{"OBJECT_NAME":"KINEIS-3B","OBJECT_ID":"2024-172E","EPOCH":"2026-04-25T18:04:11.244288","MEAN_MOTION":14.72300978,"ECCENTRICITY":0.00013654,"INCLINATION":98.0396,"RA_OF_ASC_NODE":206.3362,"ARG_OF_PERICENTER":188.3227,"MEAN_ANOMALY":171.7958,"EPHEMERIS_TYPE":0,"CLASSIFICATION_TYPE":"U","NORAD_CAT_ID":61224,"ELEMENT_SET_NO":999,"REV_AT_EPOCH":8563,"BSTAR":0.00027264754,"MEAN_MOTION_DOT":1.674e-5,"MEAN_MOTION_DDOT":0},{"OBJECT_NAME":"KINEIS-5C","OBJECT_ID":"2024-219A","EPOCH":"2026-04-25T22:22:13.058112","MEAN_MOTION":14.72300139,"ECCENTRICITY":0.00054366,"INCLINATION":97.9007,"RA_OF_ASC_NODE":276.2512,"ARG_OF_PERICENTER":90.7114,"MEAN_ANOMALY":269.4717,"EPHEMERIS_TYPE":0,"CLASSIFICATION_TYPE":"U","NORAD_CAT_ID":62081,"ELEMENT_SET_NO":999,"REV_AT_EPOCH":7606,"BSTAR":-9.133162e-6,"MEAN_MOTION_DOT":-1.06e-6,"MEAN_MOTION_DDOT":0},{"OBJECT_NAME":"KINEIS-5D","OBJECT_ID":"2024-219B","EPOCH":"2026-04-25T21:33:25.120224","MEAN_MOTION":14.72348566,"ECCENTRICITY":0.00064078,"INCLINATION":97.9098,"RA_OF_ASC_NODE":276.1597,"ARG_OF_PERICENTER":85.0365,"MEAN_ANOMALY":275.1575,"EPHEMERIS_TYPE":0,"CLASSIFICATION_TYPE":"U","NORAD_CAT_ID":62082,"ELEMENT_SET_NO":999,"REV_AT_EPOCH":7606,"BSTAR":0.0001601522,"MEAN_MOTION_DOT":9.65e-6,"MEAN_MOTION_DDOT":0}]
